[{"OBJECT_NAME":"STARLINK-2046","OBJECT_ID":"2021-005F","EPOCH":"2026-03-09T07:14:34.390752","MEAN_MOTION":15.30240663,"ECCENTRICITY":0.00011823,"INCLINATION":53.16,"RA_OF_ASC_NODE":25.7636,"ARG_OF_PERICENTER":90.9763,"MEAN_ANOMALY":269.1373,"EPHEMERIS_TYPE":0,"CLASSIFICATION_TYPE":"U","NORAD_CAT_ID":47354,"ELEMENT_SET_NO":999,"REV_AT_EPOCH":28351,"BSTAR":0.00052507363,"MEAN_MOTION_DOT":0.00015243,"MEAN_MOTION_DDOT":0},{"OBJECT_NAME":"TRANSPORTER-1 OBJECT AA","OBJECT_ID":"2021-006AA","EPOCH":"2026-03-09T22:58:14.761920","MEAN_MOTION":15.29982294,"ECCENTRICITY":0.00086604,"INCLINATION":97.2381,"RA_OF_ASC_NODE":112.457,"ARG_OF_PERICENTER":185.709,"MEAN_ANOMALY":174.4054,"EPHEMERIS_TYPE":0,"CLASSIFICATION_TYPE":"U","NORAD_CAT_ID":47437,"ELEMENT_SET_NO":999,"REV_AT_EPOCH":28414,"BSTAR":0.0002197941,"MEAN_MOTION_DOT":6.312e-5,"MEAN_MOTION_DDOT":0}]
